OBJECT_NAME,OBJECT_ID,EPOCH,MEAN_MOTION,ECCENTRICITY,INCLINATION,RA_OF_ASC_NODE,ARG_OF_PERICENTER,MEAN_ANOMALY,EPHEMERIS_TYPE,CLASSIFICATION_TYPE,NORAD_CAT_ID,ELEMENT_SET_NO,REV_AT_EPOCH,BSTAR,MEAN_MOTION_DOT,MEAN_MOTION_DDOT
POLYITAN-1,2014-033AJ,2026-07-11T14:00:50.516064,15.34132156,.00081869,98.0942,221.1671,74.8033,285.4113,0,U,40042,999,65733,.34589302E-3,.11351E-3,0
TIGRISAT,2014-033AK,2026-07-11T08:52:24.274560,14.85242878,.00489566,97.7858,341.8319,356.9649,3.1262,0,U,40043,999,64921,.10764196E-3,.887E-5,0
AEROCUBE 6A,2014-033AM,2026-07-09T17:33:14.827104,14.98308817,.00369154,97.7235,357.4445,299.7682,59.9870,0,U,40045,999,64999,.28750307E-3,.3408E-4,0
AEROCUBE 6B,2014-033AN,2026-07-10T05:53:35.084544,14.99771692,.00379448,97.7203,357.7928,287.6201,72.0880,0,U,40046,999,65021,.25889665E-3,.3186E-4,0
CANX-4,2014-034C,2026-07-11T14:30:57.213504,14.81307437,.00115175,98.3090,68.8109,295.6910,64.3112,0,U,40055,999,64814,.66413906E-4,.461E-5,0
CANX-5,2014-034D,2026-07-11T14:28:17.211072,14.81324741,.0011519,98.3092,68.8540,295.9041,64.0982,0,U,40056,999,63895,.65985392E-4,.458E-5,0
UKUBE-1,2014-037F,2026-07-11T22:57:36.361440,15.13920284,.00032803,98.4242,198.8382,93.2420,266.9184,0,U,40074,999,65230,.28459201E-3,.5077E-4,0
BRITE-PL2 (HEWELIUSZ),2014-049B,2026-07-11T21:01:11.262720,14.94681645,.0014633,97.9118,305.0697,33.0365,327.1766,0,U,40119,999,64513,.98739636E-4,.1013E-4,0
AEROCUBE 5C,2015-058B,2026-07-09T00:42:20.006208,14.91551276,.01319227,64.7653,194.6344,54.7863,306.5516,0,U,40965,999,36891,.17146698E-3,.1855E-4,0
AEROCUBE 7,2015-058C,2026-07-11T08:52:31.063008,14.95890731,.01217529,64.7604,169.0605,52.2144,308.9921,0,U,40966,999,36957,.25063791E-3,.3081E-4,0
FOX-1A (AO-85),2015-058D,2026-07-11T00:41:55.150656,14.91072604,.01320462,64.7731,204.8837,47.3799,313.8357,0,U,40967,999,11712,.15192539E-3,.1601E-4,0
SINOD-D 1,2015-058E,2026-07-11T09:52:53.360544,14.96065583,.01207429,64.7731,183.0409,43.5992,317.4586,0,U,40968,999,12028,.24246523E-3,.2981E-4,0
SNAP-3 ALICE,2015-058G,2026-07-11T22:20:35.675808,15.66570748,.00241013,64.7491,17.9897,350.3600,9.7083,0,U,40970,999,12075,.84579762E-3,.91094E-3,0
LMRST-SAT,2015-058H,2026-07-10T07:40:18.931584,14.90686200,.01335468,64.7738,203.4710,49.6543,311.6141,0,U,40971,999,11700,.16605514E-3,.1755E-4,0
SNAP-3 EDDIE,2015-058J,2026-07-11T20:06:06.891264,15.67881370,.00251651,64.7396,8.8536,353.3710,6.7103,0,U,40972,999,12288,.89572349E-3,.102073E-2,0
PROPCUBE 3,2015-058K,2026-07-11T23:18:37.055808,14.94400058,.01255123,64.7665,175.0918,50.2324,310.9764,0,U,40973,999,11850,.21525773E-3,.2534E-4,0
BISONSAT,2015-058L,2026-07-11T19:52:50.936448,15.16872283,.00817977,64.7588,93.9345,37.2712,323.4050,0,U,40974,999,11935,.41623585E-3,.8769E-4,0
SNAP-3 JIMI,2015-058M,2026-07-11T06:50:34.465632,15.02574155,.01075457,64.7632,143.5121,45.8501,315.1396,0,U,40975,999,11784,.31539616E-3,.4584E-4,0
PROPCUBE 1 (FLORA),2015-058N,2026-07-11T12:06:30.458016,14.89317080,.01322159,64.7727,219.8641,51.4946,309.7934,0,U,40976,999,11988,.13041954E-3,.1281E-4,0
SINOD-D 3,2015-058P,2026-07-11T11:18:53.375904,14.94155488,.01207615,64.7701,199.9779,48.5870,312.5545,0,U,40977,999,11838,.20731913E-3,.2388E-4,0
RAVAN,2016-067B,2026-07-11T16:12:45.118080,15.57194601,.00018569,97.9846,85.1192,241.0281,119.0786,0,U,41849,999,53150,.49865384E-3,.36242E-3,0
CELTEE 1,2016-067C,2026-07-11T13:37:30.334080,15.19919001,.00021935,98.0646,60.7979,114.9916,245.1545,0,U,41850,999,52958,.15158229E-3,.3179E-4,0
OPTICUBE 04,2016-067D,2026-07-11T16:02:57.119424,15.09763961,.00164171,98.0681,46.2285,39.3229,320.9187,0,U,41851,999,52886,.10758666E-3,.167E-4,0
AEROCUBE 8D,2016-067E,2026-07-11T15:17:15.226656,15.24738190,.00047516,98.0654,64.6700,65.5953,294.5778,0,U,41852,999,52979,.1766625E-3,.4292E-4,0
AEROCUBE 8C,2016-067F,2026-07-11T14:12:55.612512,15.24991832,.0004641,98.0530,61.8186,355.5384,4.5809,0,U,41853,999,52978,.18667821E-3,.4575E-4,0
CORVUS BC2,2017-042X,2026-07-10T07:28:21.992160,15.06442373,.00138712,97.4090,351.7667,39.1681,321.0548,0,U,42846,999,49054,.14632989E-3,.2103E-4,0
CORVUS BC1,2017-042Y,2026-07-11T21:32:15.787680,15.06611168,.00119454,97.4117,354.1218,12.2872,347.8644,0,U,42847,999,49081,.94397259E-4,.1341E-4,0
MAKERSAT 0,2017-073D,2026-07-11T15:58:40.299744,15.32918937,.01052726,97.4597,75.3853,184.8237,175.2002,0,U,43016,999,47021,.30302348E-3,.11419E-3,0
SIRION PATHFINDER-2,2018-099B,2026-07-11T16:35:34.223712,15.14760800,.00081287,97.4245,241.1675,204.5244,155.5602,0,U,43759,999,41633,.16707902E-3,.3035E-4,0
CORVUS BC4,2018-099K,2026-07-11T15:57:51.588288,15.12684923,.00064882,97.4058,234.9296,276.4412,83.6081,0,U,43767,999,41610,.1639445E-3,.2806E-4,0
